OBJECT_NAME,OBJECT_ID,EPOCH,MEAN_MOTION,ECCENTRICITY,INCLINATION,RA_OF_ASC_NODE,ARG_OF_PERICENTER,MEAN_ANOMALY,EPHEMERIS_TYPE,CLASSIFICATION_TYPE,NORAD_CAT_ID,ELEMENT_SET_NO,REV_AT_EPOCH,BSTAR,MEAN_MOTION_DOT,MEAN_MOTION_DDOT
DUBAISAT-1,2009-041B,2026-07-17T21:13:17.522976,14.75168967,.0009701,98.0088,331.8125,339.6111,20.4709,0,U,35682,999,90962,.61364584E-4,.364E-5,0
OCEANSAT-2,2009-051A,2026-07-17T22:31:33.051072,13.99655936,.00175174,98.2322,182.7198,145.6201,214.6103,0,U,35931,999,88363,.8648103E-5,-.25E-6,0
WORLDVIEW-2 (WV-2),2009-055A,2026-07-17T23:46:04.755648,14.37907397,.00054144,98.4755,272.0206,123.0912,237.0795,0,U,35946,999,88007,.29745157E-4,.46E-6,0
SMOS,2009-059A,2026-07-17T18:25:38.514432,14.39736782,.00011726,98.4431,25.6546,97.6974,262.4347,0,U,36036,999,87785,.44430534E-4,.96E-6,0
YAOGAN-7,2009-069A,2026-07-17T23:01:33.167424,14.78036859,.0023354,98.0029,84.6308,302.0402,57.8540,0,U,36110,999,89417,.33092757E-4,.187E-5,0
TANDEM-X,2010-030A,2026-07-07T11:29:58.986816,15.19154052,.0001887,97.4457,195.8973,94.3019,265.8431,0,U,36605,999,88972,.21566E-4,.386E-5,0
CARTOSAT-2B,2010-035A,2026-07-17T22:14:46.106592,14.78652754,.00127516,97.9933,249.2770,91.9234,268.3437,0,U,36795,999,86439,.41333193E-4,.251E-5,0
YAOGAN-10,2010-038A,2026-07-17T23:52:48.222048,14.85432779,.00016262,97.8965,222.1539,81.9193,304.4551,0,U,36834,999,86178,.38773922E-4,.28E-5,0
COSMO-SKYMED 4,2010-060A,2026-07-17T23:00:16.082208,14.82151545,.00015407,97.8891,22.1129,84.6189,275.5200,0,U,37216,999,84912,.57550629E-4,.406E-5,0
RESOURCESAT-2,2011-015A,2026-07-17T22:00:03.025152,14.21599912,.00117148,98.7630,266.1438,163.5100,196.6461,0,U,37387,999,79054,.3350791E-4,.29E-6,0
HAIYANG-2A,2011-043A,2026-07-17T23:45:00.669312,13.73204893,.00020297,99.3399,200.9577,24.0160,336.1083,0,U,37781,999,75088,-.15400497E-3,-.186E-5,0
RASAT,2011-044D,2026-07-17T22:10:00.115680,14.68194669,.00219366,98.0584,289.8518,94.5086,16.8394,0,U,37791,999,79769,.73231063E-4,.374E-5,0
SRMSAT,2011-058D,2026-07-17T11:48:44.276832,14.11581368,.0011702,19.9706,236.0426,176.3977,328.2795,0,U,37841,999,76210,.31755E-4,.324E-5,0
PLEIADES 1A,2011-076F,2026-07-18T00:12:42.177600,14.58547057,.00016596,98.1968,273.6958,77.9400,47.8640,0,U,38012,999,77648,.4594428E-5,-.24E-6,0
ZIYUAN 1-02C (ZY 1-02C),2011-079A,2026-07-17T23:26:38.053248,14.38236430,.00057801,98.4057,265.6401,205.3347,278.9020,0,U,38038,999,76363,.24476983E-4,.31E-6,0
ARIRANG-3 (KOMPSAT-3),2012-025B,2026-07-17T23:06:47.353248,14.62230374,.0006053,98.1187,155.8954,31.3489,328.8072,0,U,38338,999,75584,.47194269E-4,.191E-5,0
EXACTVIEW-1 (ADS-1B),2012-039C,2026-07-17T20:30:50.211648,14.24992623,.00119466,98.9808,316.9419,84.6148,275.6393,0,U,38709,999,72707,.35638402E-4,.37E-6,0
SPOT 6,2012-047A,2026-07-17T22:21:35.278848,14.58539113,.00011106,98.2105,265.8783,90.6808,269.4519,0,U,38755,999,73753,.5298817E-5,-.21E-6,0
PLEIADES 1B,2012-068A,2026-07-17T22:48:22.748256,14.58534645,.0001526,98.1939,273.5763,78.1041,282.0329,0,U,39019,999,72533,.11150235E-4,.6E-7,0
GOKTURK 2,2012-073A,2026-07-17T22:26:59.512128,14.75571035,.00009975,97.6805,34.8240,98.7739,261.3584,0,U,39030,999,72904,.82300584E-4,.514E-5,0
LANDSAT 8,2013-008A,2026-07-17T22:13:43.561632,14.57095193,.00013627,98.2288,268.6942,91.2392,268.8963,0,U,39084,999,70237,.32451015E-4,.101E-5,0
SARAL,2013-009A,2026-07-17T21:44:07.496448,14.32896219,.0001864,98.5557,25.0846,160.2329,199.8927,0,U,39086,999,70000,.22853464E-4,.19E-6,0
GAOFEN-1,2013-018A,2026-07-17T23:09:45.779616,14.76520264,.00172935,97.9083,270.4053,162.3799,197.8015,0,U,39150,999,71278,.53637677E-4,.324E-5,0
VNREDSAT 1,2013-021B,2026-07-17T23:07:25.275936,14.64885085,.00015588,97.9060,251.1962,81.1881,278.9499,0,U,39160,999,70479,.29703597E-4,.114E-5,0
ARIRANG-5 (KOMPSAT-5),2013-042A,2026-07-17T23:01:33.534624,15.04496072,.00051258,97.6201,25.2276,50.6747,309.4933,0,U,39227,999,70848,.18294381E-4,.195E-5,0
SKYSAT-A,2013-066C,2026-07-17T19:27:51.474816,15.13122952,.00207036,97.3800,247.2323,203.9624,156.0646,0,U,39418,999,69311,.83912493E-4,.1429E-4,0
DUBAISAT-2,2013-066D,2026-07-17T22:41:09.281184,15.10384818,.00091699,97.4580,188.2902,292.4360,67.5899,0,U,39419,999,69103,.91374053E-4,.1438E-4,0
GPM-CORE,2014-009C,2026-07-17T21:27:31.112640,15.45062164,.00109182,64.9694,205.2406,262.8759,97.1141,0,U,39574,999,70255,.73735793E-4,.3248E-4,0
SENTINEL-1A,2014-016A,2026-07-17T14:34:46.754976,14.59175806,.00015106,98.1738,205.6947,77.7211,282.4158,0,U,39634,999,65445,.14006304E-4,.2E-6,0
KAZEOSAT 1,2014-024A,2026-07-17T21:33:27.833184,14.42037203,.00012041,98.3196,270.5792,83.2623,276.8704,0,U,39731,999,64298,-.20326008E-4,-.109E-5,0
