DUBAISAT-1              
1 35682U 09041B   26198.88423059  .00000364  00000+0  61365-4 0  9990
2 35682  98.0088 331.8125 0009701 339.6111  20.4709 14.75168967909625
OCEANSAT-2              
1 35931U 09051A   26198.93857698 -.00000025  00000+0  86481-5 0  9996
2 35931  98.2322 182.7198 0017517 145.6201 214.6103 13.99655936883636
WORLDVIEW-2 (WV-2)      
1 35946U 09055A   26198.99033282  .00000046  00000+0  29745-4 0  9998
2 35946  98.4755 272.0206 0005414 123.0912 237.0795 14.37907397880074
SMOS                    
1 36036U 09059A   26198.76780688  .00000096  00000+0  44431-4 0  9991
2 36036  98.4431  25.6546 0001172  97.6974 262.4347 14.39736782877853
YAOGAN-7                
1 36110U 09069A   26198.95941166  .00000187  00000+0  33093-4 0  9999
2 36110  98.0029  84.6308 0023354 302.0402  57.8540 14.78036859894177
TANDEM-X                
1 36605U 10030A   26188.47915494  .00000386  00000+0  21566-4 0  9992
2 36605  97.4457 195.8973 0001887  94.3019 265.8431 15.19154052889726
CARTOSAT-2B             
1 36795U 10035A   26198.92692253  .00000251  00000+0  41333-4 0  9998
2 36795  97.9933 249.2770 0012751  91.9234 268.3437 14.78652754864399
YAOGAN-10               
1 36834U 10038A   26198.99500257  .00000280  00000+0  38774-4 0  9991
2 36834  97.8965 222.1539 0001626  81.9193 304.4551 14.85432779861782
COSMO-SKYMED 4          
1 37216U 10060A   26198.95851947  .00000406  00000+0  57551-4 0  9996
2 37216  97.8891  22.1129 0001540  84.6189 275.5200 14.82151545849127
RESOURCESAT-2           
1 37387U 11015A   26198.91670168  .00000029  00000+0  33508-4 0  9993
2 37387  98.7630 266.1438 0011714 163.5100 196.6461 14.21599912790544
HAIYANG-2A              
1 37781U 11043A   26198.98959108 -.00000186  00000+0 -15400-3 0  9999
2 37781  99.3399 200.9577 0002029  24.0160 336.1083 13.73204893750888
RASAT                   
1 37791U 11044D   26198.92361245  .00000374  00000+0  73231-4 0  9998
2 37791  98.0584 289.8518 0021936  94.5086  16.8394 14.68194669797690
SRMSAT                  
1 37841U 11058D   26198.49217913  .00000324  00000+0  31755-4 0  9993
2 37841  19.9706 236.0426 0011702 176.3977 328.2795 14.11581368762101
PLEIADES 1A             
1 38012U 11076F   26199.00882150 -.00000024  00000+0  45944-5 0  9997
2 38012  98.1968 273.6958 0001659  77.9400  47.8640 14.58547057776482
ZIYUAN 1-02C (ZY 1-02C) 
1 38038U 11079A   26198.97682932  .00000031  00000+0  24477-4 0  9993
2 38038  98.4057 265.6401 0005780 205.3347 278.9020 14.38236430763632
ARIRANG-3 (KOMPSAT-3)   
1 38338U 12025B   26198.96304807  .00000191  00000+0  47194-4 0  9997
2 38338  98.1187 155.8954 0006053  31.3489 328.8072 14.62230374755841
EXACTVIEW-1 (ADS-1B)    
1 38709U 12039C   26198.85474782  .00000037  00000+0  35638-4 0  9991
2 38709  98.9808 316.9419 0011946  84.6148 275.6393 14.24992623727076
SPOT 6                  
1 38755U 12047A   26198.93165832 -.00000021  00000+0  52988-5 0  9995
2 38755  98.2105 265.8783 0001110  90.6808 269.4519 14.58539113737539
PLEIADES 1B             
1 39019U 12068A   26198.95026329  .00000006  00000+0  11150-4 0  9998
2 39019  98.1939 273.5763 0001526  78.1041 282.0329 14.58534645725332
GOKTURK 2               
1 39030U 12073A   26198.93541102  .00000514  00000+0  82301-4 0  9996
2 39030  97.6805  34.8240 0000997  98.7739 261.3584 14.75571035729040
LANDSAT 8               
1 39084U 13008A   26198.92619863  .00000101  00000+0  32451-4 0  9996
2 39084  98.2288 268.6942 0001362  91.2392 268.8963 14.57095193702373
SARAL                   
1 39086U 13009A   26198.90564232  .00000019  00000+0  22853-4 0  9999
2 39086  98.5557  25.0846 0001864 160.2329 199.8927 14.32896219700001
GAOFEN-1                
1 39150U 13018A   26198.96511319  .00000324  00000+0  53638-4 0  9999
2 39150  97.9083 270.4053 0017293 162.3799 197.8015 14.76520264712789
VNREDSAT 1              
1 39160U 13021B   26198.96348699  .00000114  00000+0  29704-4 0  9997
2 39160  97.9060 251.1962 0001558  81.1881 278.9499 14.64885085704798
ARIRANG-5 (KOMPSAT-5)   
1 39227U 13042A   26198.95941591  .00000195  00000+0  18294-4 0  9994
2 39227  97.6201  25.2276 0005125  50.6747 309.4933 15.04496072708482
SKYSAT-A                
1 39418U 13066C   26198.81101244  .00001429  00000+0  83912-4 0  9990
2 39418  97.3800 247.2323 0020703 203.9624 156.0646 15.13122952693114
DUBAISAT-2              
1 39419U 13066D   26198.94524631  .00001438  00000+0  91374-4 0  9995
2 39419  97.4580 188.2902 0009169 292.4360  67.5899 15.10384818691034
GPM-CORE                
1 39574U 14009C   26198.89411010  .00003248  00000+0  73736-4 0  9998
2 39574  64.9694 205.2406 0010918 262.8759  97.1141 15.45062164702551
SENTINEL-1A             
1 39634U 14016A   26198.60748559  .00000020  00000+0  14006-4 0  9993
2 39634  98.1738 205.6947 0001510  77.7211 282.4158 14.59175806654458
KAZEOSAT 1              
1 39731U 14024A   26198.89823881 -.00000109  00000+0 -20326-4 0  9995
2 39731  98.3196 270.5792 0001204  83.2623 276.8704 14.42037203642983
